{
  "type": "FeatureCollection",
  "features": [
    {
      "type": "Feature",
      "properties": {
        "norad_id": 34459,
        "name": "COSMOS 2251 DEB",
        "group": "cosmos-2251-debris",
        "lat": 63.4908951205531,
        "lon": 47.05747152463474,
        "alt_km": 989.2039088299416,
        "timestamp": "2025-12-08T03:50:07.390501+00:00",
        "meta_object_name": "COSMOS 2251 DEB",
        "meta_object_id": "1993-036TC",
        "meta_epoch": "2025-12-07T01:35:32.786016",
        "meta_mean_motion": 14.00483211,
        "meta_eccentricity": 0.01919847,
        "meta_inclination": 74.0792,
        "meta_ra_of_asc_node": 263.8541,
        "meta_arg_of_pericenter": 334.9144,
        "meta_mean_anomaly": 24.2752,
        "meta_ephemeris_type": 0,
        "meta_classification_type": "U",
        "meta_norad_cat_id": 34459,
        "meta_element_set_no": 999,
        "meta_rev_at_epoch": 85632,
        "meta_bstar": 0.00096179833,
        "meta_mean_motion_dot": 1.65e-05,
        "meta_mean_motion_ddot": 0,
        "tle_line1": "1 34459U 93036TC  25341.06635169  .00001650  00000+0  96180-3 0  9995",
        "tle_line2": "2 34459  74.0792 263.8541 0191984 334.9144  24.2752 14.00483211856325"
      },
      "geometry": {
        "type": "Point",
        "coordinates": [
          47.05747152463474,
          63.4908951205531
        ]
      }
    },
    {
      "type": "Feature",
      "properties": {
        "norad_id": 34464,
        "name": "COSMOS 2251 DEB",
        "group": "cosmos-2251-debris",
        "lat": -25.563491311134804,
        "lon": 80.10514829972345,
        "alt_km": 489.1435349354233,
        "timestamp": "2025-12-08T03:50:07.390511+00:00",
        "meta_object_name": "COSMOS 2251 DEB",
        "meta_object_id": "1993-036TH",
        "meta_epoch": "2025-12-07T01:12:10.355904",
        "meta_mean_motion": 15.25827994,
        "meta_eccentricity": 0.00169394,
        "meta_inclination": 73.9911,
        "meta_ra_of_asc_node": 90.3516,
        "meta_arg_of_pericenter": 264.9749,
        "meta_mean_anomaly": 94.9518,
        "meta_ephemeris_type": 0,
        "meta_classification_type": "U",
        "meta_norad_cat_id": 34464,
        "meta_element_set_no": 999,
        "meta_rev_at_epoch": 89753,
        "meta_bstar": 0.0042093471,
        "meta_mean_motion_dot": 0.00109717,
        "meta_mean_motion_ddot": 0,
        "tle_line1": "1 34464U 93036TH  25341.05011986  .00109717  00000+0  42093-2 0  9991",
        "tle_line2": "2 34464  73.9911  90.3516 0016939 264.9749  94.9518 15.25827994897536"
      },
      "geometry": {
        "type": "Point",
        "coordinates": [
          80.10514829972345,
          -25.563491311134804
        ]
      }
    },
    {
      "type": "Feature",
      "properties": {
        "norad_id": 34468,
        "name": "COSMOS 2251 DEB",
        "group": "cosmos-2251-debris",
        "lat": 54.5336073702139,
        "lon": 149.51510829099675,
        "alt_km": 773.037351822496,
        "timestamp": "2025-12-08T03:50:07.390521+00:00",
        "meta_object_name": "COSMOS 2251 DEB",
        "meta_object_id": "1993-036TM",
        "meta_epoch": "2025-12-07T04:20:48.736032",
        "meta_mean_motion": 14.47602163,
        "meta_eccentricity": 0.00763369,
        "meta_inclination": 74.0126,
        "meta_ra_of_asc_node": 127.6177,
        "meta_arg_of_pericenter": 273.6668,
        "meta_mean_anomaly": 85.5764,
        "meta_ephemeris_type": 0,
        "meta_classification_type": "U",
        "meta_norad_cat_id": 34468,
        "meta_element_set_no": 999,
        "meta_rev_at_epoch": 88381,
        "meta_bstar": 0.00060325731,
        "meta_mean_motion_dot": 2.275e-05,
        "meta_mean_motion_ddot": 0,
        "tle_line1": "1 34468U 93036TM  25341.18111963  .00002275  00000+0  60326-3 0  9996",
        "tle_line2": "2 34468  74.0126 127.6177 0076336 273.6668  85.5764 14.47602163883818"
      },
      "geometry": {
        "type": "Point",
        "coordinates": [
          149.51510829099675,
          54.5336073702139
        ]
      }
    },
    {
      "type": "Feature",
      "properties": {
        "norad_id": 34472,
        "name": "COSMOS 2251 DEB",
        "group": "cosmos-2251-debris",
        "lat": -72.62775246556117,
        "lon": 39.8850675770564,
        "alt_km": 815.3637005735172,
        "timestamp": "2025-12-08T03:50:07.390532+00:00",
        "meta_object_name": "COSMOS 2251 DEB",
        "meta_object_id": "1993-036TR",
        "meta_epoch": "2025-12-05T14:54:42.312384",
        "meta_mean_motion": 13.70313607,
        "meta_eccentricity": 0.03279919,
        "meta_inclination": 74.0837,
        "meta_ra_of_asc_node": 109.8506,
        "meta_arg_of_pericenter": 242.3718,
        "meta_mean_anomaly": 114.375,
        "meta_ephemeris_type": 0,
        "meta_classification_type": "U",
        "meta_norad_cat_id": 34472,
        "meta_element_set_no": 999,
        "meta_rev_at_epoch": 83629,
        "meta_bstar": 0.0014763428,
        "meta_mean_motion_dot": 1.882e-05,
        "meta_mean_motion_ddot": 0,
        "tle_line1": "1 34472U 93036TR  25339.62132306  .00001882  00000+0  14763-2 0  9997",
        "tle_line2": "2 34472  74.0837 109.8506 0327991 242.3718 114.3750 13.70313607836298"
      },
      "geometry": {
        "type": "Point",
        "coordinates": [
          39.8850675770564,
          -72.62775246556117
        ]
      }
    },
    {
      "type": "Feature",
      "properties": {
        "norad_id": 34474,
        "name": "COSMOS 2251 DEB",
        "group": "cosmos-2251-debris",
        "lat": 3.356409158399366,
        "lon": 153.21491086140927,
        "alt_km": 958.8376574282274,
        "timestamp": "2025-12-08T03:50:07.390542+00:00",
        "meta_object_name": "COSMOS 2251 DEB",
        "meta_object_id": "1993-036TT",
        "meta_epoch": "2025-12-06T23:50:36.818880",
        "meta_mean_motion": 14.06356292,
        "meta_eccentricity": 0.01979658,
        "meta_inclination": 74.0779,
        "meta_ra_of_asc_node": 336.2092,
        "meta_arg_of_pericenter": 51.5533,
        "meta_mean_anomaly": 340.3427,
        "meta_ephemeris_type": 0,
        "meta_classification_type": "U",
        "meta_norad_cat_id": 34474,
        "meta_element_set_no": 999,
        "meta_rev_at_epoch": 85428,
        "meta_bstar": 0.0024370484,
        "meta_mean_motion_dot": 4.781e-05,
        "meta_mean_motion_ddot": 0,
        "tle_line1": "1 34474U 93036TT  25340.99348170  .00004781  00000+0  24370-2 0  9995",
        "tle_line2": "2 34474  74.0779 336.2092 0197965  51.5533 340.3427 14.06356292854280"
      },
      "geometry": {
        "type": "Point",
        "coordinates": [
          153.21491086140927,
          3.356409158399366
        ]
      }
    },
    {
      "type": "Feature",
      "properties": {
        "norad_id": 34476,
        "name": "COSMOS 2251 DEB",
        "group": "cosmos-2251-debris",
        "lat": -4.9883789617271015,
        "lon": -88.34114527635462,
        "alt_km": 1091.8896975734397,
        "timestamp": "2025-12-08T03:50:07.390552+00:00",
        "meta_object_name": "COSMOS 2251 DEB",
        "meta_object_id": "1993-036TV",
        "meta_epoch": "2025-12-06T17:54:22.363488",
        "meta_mean_motion": 13.81942148,
        "meta_eccentricity": 0.0319344,
        "meta_inclination": 74.0061,
        "meta_ra_of_asc_node": 92.6058,
        "meta_arg_of_pericenter": 313.5001,
        "meta_mean_anomaly": 43.9973,
        "meta_ephemeris_type": 0,
        "meta_classification_type": "U",
        "meta_norad_cat_id": 34476,
        "meta_element_set_no": 999,
        "meta_rev_at_epoch": 83555,
        "meta_bstar": 0.0048589185,
        "meta_mean_motion_dot": 7.676e-05,
        "meta_mean_motion_ddot": 0,
        "tle_line1": "1 34476U 93036TV  25340.74609217  .00007676  00000+0  48589-2 0  9996",
        "tle_line2": "2 34476  74.0061  92.6058 0319344 313.5001  43.9973 13.81942148835553"
      },
      "geometry": {
        "type": "Point",
        "coordinates": [
          -88.34114527635462,
          -4.9883789617271015
        ]
      }
    },
    {
      "type": "Feature",
      "properties": {
        "norad_id": 34477,
        "name": "COSMOS 2251 DEB",
        "group": "cosmos-2251-debris",
        "lat": -64.70279136282451,
        "lon": 40.79063798540691,
        "alt_km": 660.4068240583028,
        "timestamp": "2025-12-08T03:50:07.390561+00:00",
        "meta_object_name": "COSMOS 2251 DEB",
        "meta_object_id": "1993-036TW",
        "meta_epoch": "2025-12-07T06:52:18.301152",
        "meta_mean_motion": 14.56800458,
        "meta_eccentricity": 0.00769135,
        "meta_inclination": 73.9795,
        "meta_ra_of_asc_node": 79.8927,
        "meta_arg_of_pericenter": 268.0424,
        "meta_mean_anomaly": 122.3596,
        "meta_ephemeris_type": 0,
        "meta_classification_type": "U",
        "meta_norad_cat_id": 34477,
        "meta_element_set_no": 999,
        "meta_rev_at_epoch": 88546,
        "meta_bstar": 0.0013821388,
        "meta_mean_motion_dot": 6.416e-05,
        "meta_mean_motion_ddot": 0,
        "tle_line1": "1 34477U 93036TW  25341.28632293  .00006416  00000+0  13821-2 0  9999",
        "tle_line2": "2 34477  73.9795  79.8927 0076913 268.0424 122.3596 14.56800458885461"
      },
      "geometry": {
        "type": "Point",
        "coordinates": [
          40.79063798540691,
          -64.70279136282451
        ]
      }
    }
  ]
}